start=new Date('2021-09-07T00:00:00.000Z').valueOf();
sats=[{"OBJECT_NAME":"STARLINK-2076","CENTER_NAME":"EARTH","PERIAPSIS":"546.472","MEAN_MOTION_DOT":"0.00001093","GP_ID":"184224932","ECCENTRICITY":"0.00010940","INCLINATION":"53.0534","MEAN_ELEMENT_THEORY":"SGP4","LAUNCH_DATE":"2021-01-20","DECAY_DATE":null,"SEMIMAJOR_AXIS":"6925.365","EPOCH":"2021-09-06T16:40:21.095904","MEAN_MOTION":"15.06394690","REV_AT_EPOCH":"3510","RA_OF_ASC_NODE":"246.3003","APOAPSIS":"547.987","COUNTRY_CODE":"US","EPHEMERIS_TYPE":"0","TLE_LINE1":"1 47362U 21005P   21249.69468861  .00001093  00000-0  92262-4 0  9994","NORAD_CAT_ID":"47362","ELEMENT_SET_NO":"999","TLE_LINE2":"2 47362  53.0534 246.3003 0001094  63.8917 296.2185 15.06394690 35105","ARG_OF_PERICENTER":"63.8917","REF_FRAME":"TEME","CLASSIFICATION_TYPE":"U","PERIOD":"95.592","TIME_SYSTEM":"UTC","OBJECT_TYPE":"PAYLOAD","RCS_SIZE":"LARGE","MEAN_MOTION_DDOT":"0.0000000000000","FILE":"3109923","OBJECT_ID":"2021-005P","SITE":"AFETR","MEAN_ANOMALY":"296.2185","BSTAR":"0.00009226200000"},{"PERIAPSIS":"546.460","CENTER_NAME":"EARTH","OBJECT_NAME":"STARLINK-2077","MEAN_MOTION_DOT":"0.00000818","ECCENTRICITY":"0.00010780","GP_ID":"184226183","MEAN_ELEMENT_THEORY":"SGP4","INCLINATION":"53.0530","LAUNCH_DATE":"2021-01-20","DECAY_DATE":null,"REV_AT_EPOCH":"3510","RA_OF_ASC_NODE":"246.2796","MEAN_MOTION":"15.06402281","EPOCH":"2021-09-06T16:45:38.954592","SEMIMAJOR_AXIS":"6925.342","COUNTRY_CODE":"US","APOAPSIS":"547.953","TLE_LINE1":"1 47363U 21005Q   21249.69836753  .00000818  00000-0  73819-4 0  9995","EPHEMERIS_TYPE":"0","NORAD_CAT_ID":"47363","TLE_LINE2":"2 47363  53.0530 246.2796 0001078  68.9540 291.1564 15.06402281 35101","ARG_OF_PERICENTER":"68.9540","ELEMENT_SET_NO":"999","PERIOD":"95.592","CLASSIFICATION_TYPE":"U","REF_FRAME":"TEME","MEAN_MOTION_DDOT":"0.0000000000000","RCS_SIZE":"LARGE","OBJECT_TYPE":"PAYLOAD","TIME_SYSTEM":"UTC","FILE":"3109923","BSTAR":"0.00007381900000","MEAN_ANOMALY":"291.1564","SITE":"AFETR","OBJECT_ID":"2021-005Q"},{"LAUNCH_DATE":"2021-01-20","MEAN_MOTION":"15.06404110","REV_AT_EPOCH":"3510","RA_OF_ASC_NODE":"246.1105","SEMIMAJOR_AXIS":"6925.336","EPOCH":"2021-09-06T17:33:23.669280","DECAY_DATE":null,"MEAN_MOTION_DOT":"-0.00000321","OBJECT_NAME":"STARLINK-2079","CENTER_NAME":"EARTH","PERIAPSIS":"546.114","MEAN_ELEMENT_THEORY":"SGP4","INCLINATION":"53.0527","GP_ID":"184225934","ECCENTRICITY":"0.00015700","RCS_SIZE":"LARGE","MEAN_MOTION_DDOT":"0.0000000000000","OBJECT_TYPE":"PAYLOAD","TIME_SYSTEM":"UTC","CLASSIFICATION_TYPE":"U","PERIOD":"95.592","REF_FRAME":"TEME","MEAN_ANOMALY":"300.1531","BSTAR":"-0.00000267860000","OBJECT_ID":"2021-005R","SITE":"AFETR","FILE":"3109923","EPHEMERIS_TYPE":"0","TLE_LINE1":"1 47364U 21005R   21249.73152395 -.00000321  00000-0 -26786-5 0  9997","COUNTRY_CODE":"US","APOAPSIS":"548.288","ELEMENT_SET_NO":"999","TLE_LINE2":"2 47364  53.0527 246.1105 0001570  59.9613 300.1531 15.06404110 35107","ARG_OF_PERICENTER":"59.9613","NORAD_CAT_ID":"47364"},{"OBJECT_NAME":"STARLINK-2080","PERIAPSIS":"347.589","CENTER_NAME":"EARTH","MEAN_MOTION_DOT":"0.00031628","GP_ID":"184224682","ECCENTRICITY":"0.00030320","INCLINATION":"53.0513","MEAN_ELEMENT_THEORY":"SGP4","LAUNCH_DATE":"2021-01-20","DECAY_DATE":null,"SEMIMAJOR_AXIS":"6727.764","EPOCH":"2021-09-06T18:03:11.777760","MEAN_MOTION":"15.73245907","RA_OF_ASC_NODE":"164.5935","REV_AT_EPOCH":"3625","APOAPSIS":"351.669","COUNTRY_CODE":"US","EPHEMERIS_TYPE":"0","TLE_LINE1":"1 47365U 21005S   21249.75221965  .00031628  00000-0  22841-3 0  9998","NORAD_CAT_ID":"47365","ELEMENT_SET_NO":"999","ARG_OF_PERICENTER":"35.9875","TLE_LINE2":"2 47365  53.0513 164.5935 0003032  35.9875 324.1346 15.73245907 36254","REF_FRAME":"TEME","CLASSIFICATION_TYPE":"U","PERIOD":"91.531","TIME_SYSTEM":"UTC","OBJECT_TYPE":"PAYLOAD","MEAN_MOTION_DDOT":"0.0000000000000","RCS_SIZE":"LARGE","FILE":"3109923","OBJECT_ID":"2021-005S","SITE":"AFETR","MEAN_ANOMALY":"324.1346","BSTAR":"0.00022841000000"},{"MEAN_ELEMENT_THEORY":"SGP4","INCLINATION":"53.0552","ECCENTRICITY":"0.00008980","GP_ID":"184225432","MEAN_MOTION_DOT":"0.00000749","CENTER_NAME":"EARTH","PERIAPSIS":"546.569","OBJECT_NAME":"STARLINK-2081","RA_OF_ASC_NODE":"246.1466","REV_AT_EPOCH":"3510","MEAN_MOTION":"15.06407271","EPOCH":"2021-09-06T17:22:45.809184","SEMIMAJOR_AXIS":"6925.326","DECAY_DATE":null,"LAUNCH_DATE":"2021-01-20","TLE_LINE2":"2 47366  53.0552 246.1466 0000898  55.2792 304.8282 15.06407271 35101","ARG_OF_PERICENTER":"55.2792","ELEMENT_SET_NO":"999","NORAD_CAT_ID":"47366","TLE_LINE1":"1 47366U 21005T   21249.72414131  .00000749  00000-0  69127-4 0  9994","EPHEMERIS_TYPE":"0","COUNTRY_CODE":"US","APOAPSIS":"547.813","BSTAR":"0.00006912700000","MEAN_ANOMALY":"304.8282","SITE":"AFETR","OBJECT_ID":"2021-005T","FILE":"3109923","RCS_SIZE":"LARGE","MEAN_MOTION_DDOT":"0.0000000000000","OBJECT_TYPE":"PAYLOAD","TIME_SYSTEM":"UTC","CLASSIFICATION_TYPE":"U","PERIOD":"95.592","REF_FRAME":"TEME"},{"DECAY_DATE":null,"REV_AT_EPOCH":"3510","RA_OF_ASC_NODE":"246.3510","MEAN_MOTION":"15.06401883","EPOCH":"2021-09-06T16:24:23.503968","SEMIMAJOR_AXIS":"6925.343","LAUNCH_DATE":"2021-01-20","ECCENTRICITY":"0.00012150","GP_ID":"184225684","MEAN_ELEMENT_THEORY":"SGP4","INCLINATION":"53.0539","CENTER_NAME":"EARTH","PERIAPSIS":"546.366","OBJECT_NAME":"STARLINK-2082","MEAN_MOTION_DOT":"-0.00000671","FILE":"3109923","BSTAR":"-0.00002613800000","MEAN_ANOMALY":"304.1308","SITE":"AFETR","OBJECT_ID":"2021-005U","CLASSIFICATION_TYPE":"U","PERIOD":"95.592","REF_FRAME":"TEME","MEAN_MOTION_DDOT":"0.0000000000000","RCS_SIZE":"LARGE","TIME_SYSTEM":"UTC","OBJECT_TYPE":"PAYLOAD","NORAD_CAT_ID":"47367","ARG_OF_PERICENTER":"55.9796","TLE_LINE2":"2 47367  53.0539 246.3510 0001215  55.9796 304.1308 15.06401883 35109","ELEMENT_SET_NO":"999","COUNTRY_CODE":"US","APOAPSIS":"548.049","EPHEMERIS_TYPE":"0","TLE_LINE1":"1 47367U 21005U   21249.68360537 -.00000671  00000-0 -26138-4 0  9991"},{"COUNTRY_CODE":"US","APOAPSIS":"548.113","EPHEMERIS_TYPE":"0","TLE_LINE1":"1 47368U 21005V   21249.47719310 -.00001082  00000-0 -53711-4 0  9990","NORAD_CAT_ID":"47368","ELEMENT_SET_NO":"999","ARG_OF_PERICENTER":"79.8396","TLE_LINE2":"2 47368  53.0531 247.2734 0001335  79.8396 280.2743 15.06408153 35074","PERIOD":"95.592","CLASSIFICATION_TYPE":"U","REF_FRAME":"TEME","MEAN_MOTION_DDOT":"0.0000000000000","RCS_SIZE":"LARGE","TIME_SYSTEM":"UTC","OBJECT_TYPE":"PAYLOAD","FILE":"3109699","MEAN_ANOMALY":"280.2743","BSTAR":"-0.00005371100000","OBJECT_ID":"2021-005V","SITE":"AFETR","OBJECT_NAME":"STARLINK-2084","CENTER_NAME":"EARTH","PERIAPSIS":"546.264","MEAN_MOTION_DOT":"-0.00001082","GP_ID":"184197007","ECCENTRICITY":"0.00013350","MEAN_ELEMENT_THEORY":"SGP4","INCLINATION":"53.0531","LAUNCH_DATE":"2021-01-20","DECAY_DATE":null,"MEAN_MOTION":"15.06408153","RA_OF_ASC_NODE":"247.2734","REV_AT_EPOCH":"3507","SEMIMAJOR_AXIS":"6925.324","EPOCH":"2021-09-06T11:27:09.483840"},{"LAUNCH_DATE":"2021-01-20","DECAY_DATE":null,"MEAN_MOTION":"15.06398458","RA_OF_ASC_NODE":"225.7489","REV_AT_EPOCH":"3540","SEMIMAJOR_AXIS":"6925.353","EPOCH":"2021-09-06T19:32:49.845984","OBJECT_NAME":"STARLINK-2085","PERIAPSIS":"546.414","CENTER_NAME":"EARTH","MEAN_MOTION_DOT":"0.00001254","GP_ID":"184225182","ECCENTRICITY":"0.00011610","MEAN_ELEMENT_THEORY":"SGP4","INCLINATION":"53.0562","PERIOD":"95.592","CLASSIFICATION_TYPE":"U","REF_FRAME":"TEME","MEAN_MOTION_DDOT":"0.0000000000000","RCS_SIZE":"LARGE","TIME_SYSTEM":"UTC","OBJECT_TYPE":"PAYLOAD","FILE":"3109923","MEAN_ANOMALY":"304.5533","BSTAR":"0.00010303000000","OBJECT_ID":"2021-005W","SITE":"AFETR","COUNTRY_CODE":"US","APOAPSIS":"548.022","TLE_LINE1":"1 47369U 21005W   21249.81446581  .00001254  00000-0  10303-3 0  9994","EPHEMERIS_TYPE":"0","NORAD_CAT_ID":"47369","ELEMENT_SET_NO":"999","ARG_OF_PERICENTER":"55.5565","TLE_LINE2":"2 47369  53.0562 225.7489 0001161  55.5565 304.5533 15.06398458 35403"},{"LAUNCH_DATE":"2021-01-20","DECAY_DATE":null,"SEMIMAJOR_AXIS":"6925.343","EPOCH":"2021-09-06T21:42:51.691680","MEAN_MOTION":"15.06401758","RA_OF_ASC_NODE":"205.2654","REV_AT_EPOCH":"3570","OBJECT_NAME":"STARLINK-2086","CENTER_NAME":"EARTH","PERIAPSIS":"546.095","MEAN_MOTION_DOT":"-0.00000218","GP_ID":"184224933","ECCENTRICITY":"0.00016070","INCLINATION":"53.0728","MEAN_ELEMENT_THEORY":"SGP4","REF_FRAME":"TEME","CLASSIFICATION_TYPE":"U","PERIOD":"95.592","OBJECT_TYPE":"PAYLOAD","TIME_SYSTEM":"UTC","MEAN_MOTION_DDOT":"0.0000000000000","RCS_SIZE":"LARGE","FILE":"3109923","OBJECT_ID":"2021-005X","SITE":"AFETR","MEAN_ANOMALY":"301.2370","BSTAR":"0.00000423160000","APOAPSIS":"548.321","COUNTRY_CODE":"US","EPHEMERIS_TYPE":"0","TLE_LINE1":"1 47370U 21005X   21249.90476495 -.00000218  00000-0  42316-5 0  9994","NORAD_CAT_ID":"47370","ELEMENT_SET_NO":"999","TLE_LINE2":"2 47370  53.0728 205.2654 0001607  58.8777 301.2370 15.06401758 35706","ARG_OF_PERICENTER":"58.8777"},{"SEMIMAJOR_AXIS":"6925.367","EPOCH":"2021-09-06T16:35:00.736800","MEAN_MOTION":"15.06394068","RA_OF_ASC_NODE":"246.3075","REV_AT_EPOCH":"3510","DECAY_DATE":null,"LAUNCH_DATE":"2021-01-20","INCLINATION":"53.0537","MEAN_ELEMENT_THEORY":"SGP4","GP_ID":"184226184","ECCENTRICITY":"0.00010020","MEAN_MOTION_DOT":"-0.00001028","OBJECT_NAME":"STARLINK-2088","CENTER_NAME":"EARTH","PERIAPSIS":"546.538","OBJECT_ID":"2021-005Y","SITE":"AFETR","MEAN_ANOMALY":"309.5935","BSTAR":"-0.00005016700000","FILE":"3109923","TIME_SYSTEM":"UTC","OBJECT_TYPE":"PAYLOAD","RCS_SIZE":"LARGE","MEAN_MOTION_DDOT":"0.0000000000000","REF_FRAME":"TEME","PERIOD":"95.593","CLASSIFICATION_TYPE":"U","ELEMENT_SET_NO":"999","ARG_OF_PERICENTER":"50.5143","TLE_LINE2":"2 47371  53.0537 246.3075 0001002  50.5143 309.5935 15.06394068 35100","NORAD_CAT_ID":"47371","TLE_LINE1":"1 47371U 21005Y   21249.69098075 -.00001028  00000-0 -50167-4 0  9998","EPHEMERIS_TYPE":"0","APOAPSIS":"547.926","COUNTRY_CODE":"US"}];
